NORAD_CAT_ID,OBJECT_NAME,OBJECT_TYPE,EPOCH,MEAN_MOTION,ECCENTRICITY,INCLINATION,RA_OF_ASC_NODE,ARG_OF_PERICENTER,MEAN_ANOMALY,BSTAR,MEAN_MOTION_DOT,MEAN_MOTION_DDOT,TLE_LINE0,TLE_LINE1,TLE_LINE2,SEMIMAJOR_AXIS,PERIOD,APOGEE,PERIGEE,DECAYED
52135.0,STARLINK-3729,PAYLOAD,2024-02-02 22:08:20,15.08844201,0.0001382,53.2159,266.7969,93.614,266.501,5.0189e-05,5.11e-06,0.0,0 STARLINK-3729,1 52135U 22029AZ  24033.92245523  .00000511  00000-0  50189-4 0  9999,2 52135  53.2159 266.7969 0001382  93.6140 266.5010 15.08844201105330,6917.868,95.437,540.689,538.776,0.0
52135.0,STARLINK-3729,PAYLOAD,2024-02-03 10:51:26,15.08832772,0.000147,53.2152,264.418,95.9407,264.1753,-4.3714e-05,-9.83e-06,0.0,0 STARLINK-3729,1 52135U 22029AZ  24034.45238534 -.00000983  00000-0 -43714-4 0  9993,2 52135  53.2152 264.4180 0001470  95.9407 264.1753 15.08832772105419,6917.902,95.438,540.784,538.751,0.0
52135.0,STARLINK-3729,PAYLOAD,2024-02-03 12:26:49,15.08832643,0.0001504,53.2149,264.12,103.7692,256.3468,-2.5699e-05,-6.97e-06,0.0,0 STARLINK-3729,1 52135U 22029AZ  24034.51862385 -.00000697  00000-0 -25699-4 0  9991,2 52135  53.2149 264.1200 0001504 103.7692 256.3468 15.08832643105421,6917.903,95.438,540.808,538.727,0.0
52135.0,STARLINK-3729,PAYLOAD,2024-02-03 21:59:07,15.08836868,0.000128,53.2158,262.3365,94.7155,265.3983,-1.6209e-07,-2.9e-06,0.0,0 STARLINK-3729,1 52135U 22029AZ  24034.91606242 -.00000290  00000-0 -16209-6 0  9991,2 52135  53.2158 262.3365 0001280  94.7155 265.3983 15.08836868105488,6917.89,95.438,540.64,538.869,0.0
52135.0,STARLINK-3729,PAYLOAD,2024-02-04 02:45:16,15.08840378,0.0001283,53.2158,261.4444,94.861,265.2529,3.4967e-05,2.69e-06,0.0,0 STARLINK-3729,1 52135U 22029AZ  24035.11477961  .00000269  00000-0  34967-4 0  9991,2 52135  53.2158 261.4444 0001283  94.8610 265.2529 15.08840378105516,6917.879,95.438,540.632,538.857,0.0
52135.0,STARLINK-3729,PAYLOAD,2024-02-04 13:52:59,15.08840296,0.0001281,53.2156,259.3627,95.6195,264.4944,4.6852e-05,4.58e-06,0.0,0 STARLINK-3729,1 52135U 22029AZ  24035.57846134  .00000458  00000-0  46852-4 0  9999,2 52135  53.2156 259.3627 0001281  95.6195 264.4944 15.08840296105586,6917.879,95.438,540.631,538.858,0.0
52135.0,STARLINK-3729,PAYLOAD,2024-02-04 21:49:54,15.0884593,0.0001283,53.2156,257.8757,96.8957,263.2181,0.00011906,1.608e-05,0.0,0 STARLINK-3729,1 52135U 22029AZ  24035.90965771  .00001608  00000-0  11906-3 0  9994,2 52135  53.2156 257.8757 0001283  96.8957 263.2181 15.08845930105630,6917.862,95.437,540.615,538.84,0.0
52135.0,STARLINK-3729,PAYLOAD,2024-02-05 02:36:03,15.08853127,0.0001278,53.2149,256.9837,94.9355,265.1783,0.00024445,3.606e-05,0.0,0 STARLINK-3729,1 52135U 22029AZ  24036.10837451  .00003606  00000-0  24445-3 0  9992,2 52135  53.2149 256.9837 0001278  94.9355 265.1783 15.08853127105665,6917.84,95.437,540.589,538.821,0.0
52135.0,STARLINK-3729,PAYLOAD,2024-02-05 07:22:13,15.08850552,0.000117,53.2151,256.0915,69.7498,290.362,0.0002779,4.139e-05,0.0,0 STARLINK-3729,1 52135U 22029AZ  24036.30709628  .00004139  00000-0  27790-3 0  9996,2 52135  53.2151 256.0915 0001170  69.7498 290.3620 15.08850552105697,6917.848,95.437,540.523,538.904,0.0
52135.0,STARLINK-3729,PAYLOAD,2024-02-05 20:05:18,15.08844885,0.0001288,53.2147,253.7127,89.9033,270.2107,0.00021002,3.057e-05,0.0,0 STARLINK-3729,1 52135U 22029AZ  24036.83702011  .00003057  00000-0  21002-3 0  9991,2 52135  53.2147 253.7127 0001288  89.9033 270.2107 15.08844885105778,6917.865,95.437,540.621,538.839,0.0
52135.0,STARLINK-3729,PAYLOAD,2024-02-05 23:16:04,15.08847425,0.0001287,53.2147,253.1179,89.7634,270.3506,0.00026633,3.954e-05,0.0,0 STARLINK-3729,1 52135U 22029AZ  24036.96949929  .00003954  00000-0  26633-3 0  9997,2 52135  53.2147 253.1179 0001287  89.7634 270.3506 15.08847425105792,6917.858,95.437,540.613,538.832,0.0
52135.0,STARLINK-3729,PAYLOAD,2024-02-06 21:31:28,15.08846466,0.0001345,53.2141,248.9547,82.92,277.1945,0.00032459,4.883e-05,0.0,0 STARLINK-3729,1 52135U 22029AZ  24037.89685940  .00004883  00000-0  32459-3 0  9995,2 52135  53.2141 248.9547 0001345  82.9200 277.1945 15.08846466105938,6917.861,95.437,540.656,538.795,0.0
52135.0,STARLINK-3729,PAYLOAD,2024-02-07 03:53:01,15.08833893,0.0001174,53.2142,247.7657,77.2255,282.8868,-4.9426e-05,-1.074e-05,0.0,0 STARLINK-3729,1 52135U 22029AZ  24038.16182152 -.00001074  00000-0 -49426-4 0  9997,2 52135  53.2142 247.7657 0001174  77.2255 282.8868 15.08833893105976,6917.899,95.438,540.576,538.952,0.0
52135.0,STARLINK-3729,PAYLOAD,2024-02-07 13:25:20,15.08834425,0.0001277,53.2137,245.9801,87.7339,272.3799,-4.8078e-06,-3.64e-06,0.0,0 STARLINK-3729,1 52135U 22029AZ  24038.55926310 -.00000364  00000-0 -48078-5 0  9996,2 52135  53.2137 245.9801 0001277  87.7339 272.3799 15.08834425106031,6917.897,95.438,540.646,538.879,0.0
52135.0,STARLINK-3729,PAYLOAD,2024-02-07 21:22:16,15.08837264,0.0001197,53.2136,244.4947,91.4821,268.6308,0.00018547,2.665e-05,0.0,0 STARLINK-3729,1 52135U 22029AZ  24038.89046377  .00002665  00000-0  18547-3 0  9999,2 52135  53.2136 244.4947 0001197  91.4821 268.6308 15.08837264106087,6917.889,95.438,540.582,538.926,0.0
52135.0,STARLINK-3729,PAYLOAD,2024-02-08 06:54:34,15.08841182,0.0001219,53.2139,242.71,87.265,272.8482,0.00036215,5.481e-05,0.0,0 STARLINK-3729,1 52135U 22029AZ  24039.28790467  .00005481  00000-0  36215-3 0  9990,2 52135  53.2139 242.7100 0001219  87.2650 272.8482 15.08841182106141,6917.877,95.437,540.585,538.898,0.0
52135.0,STARLINK-3729,PAYLOAD,2024-02-08 13:16:07,15.08843874,0.0001274,53.2137,241.5208,84.1866,275.9272,0.00043965,6.717e-05,0.0,0 STARLINK-3729,1 52135U 22029AZ  24039.55286521  .00006717  00000-0  43965-3 0  9994,2 52135  53.2137 241.5208 0001274  84.1866 275.9272 15.08843874106186,6917.869,95.437,540.615,538.852,0.0
52135.0,STARLINK-3729,PAYLOAD,2024-02-08 19:37:40,15.08847435,0.000126,53.2137,240.3313,83.9784,276.1352,0.00056192,8.668e-05,0.0,0 STARLINK-3729,1 52135U 22029AZ  24039.81782493  .00008668  00000-0  56192-3 0  9995,2 52135  53.2137 240.3313 0001260  83.9784 276.1352 15.08847435106225,6917.858,95.437,540.594,538.851,0.0
52135.0,STARLINK-3729,PAYLOAD,2024-02-09 19:28:27,15.08847102,0.0001307,53.2145,235.8708,80.1701,279.9438,0.000276,4.108e-05,0.0,0 STARLINK-3729,1 52135U 22029AZ  24040.81142424  .00004108  00000-0  27600-3 0  9998,2 52135  53.2145 235.8708 0001307  80.1701 279.9438 15.08847102106374,6917.859,95.437,540.628,538.82,0.0
52135.0,STARLINK-3729,PAYLOAD,2024-02-09 22:39:13,15.08847749,0.0001305,53.2145,235.2757,80.9155,279.1985,0.00026034,3.859e-05,0.0,0 STARLINK-3729,1 52135U 22029AZ  24040.94390322  .00003859  00000-0  26034-3 0  9996,2 52135  53.2145 235.2757 0001305  80.9155 279.1985 15.08847749106399,6917.857,95.437,540.624,538.819,0.0
52135.0,STARLINK-3729,PAYLOAD,2024-02-10 19:19:14,15.088417,0.0001417,53.2155,231.4084,97.6952,262.4201,6.477e-05,7.43e-06,0.0,0 STARLINK-3729,1 52135U 22029AZ  24041.80502512  .00000743  00000-0  64770-4 0  9997,2 52135  53.2155 231.4084 0001417  97.6952 262.4201 15.08841700106527,6917.875,95.437,540.72,538.76,0.0
52135.0,STARLINK-3729,PAYLOAD,2024-02-10 22:30:00,15.08843631,0.0001372,53.2164,230.8131,97.2805,262.8343,5.3129e-05,5.58e-06,0.0,0 STARLINK-3729,1 52135U 22029AZ  24041.93750391  .00000558  00000-0  53129-4 0  9991,2 52135  53.2164 230.8131 0001372  97.2805 262.8343 15.08843631106544,6917.869,95.437,540.683,538.785,0.0
52135.0,STARLINK-3729,PAYLOAD,2024-02-11 12:48:28,15.08841419,0.0001391,53.2168,228.1354,96.045,264.0701,8.7736e-05,1.109e-05,0.0,0 STARLINK-3729,1 52135U 22029AZ  24042.53366416  .00001109  00000-0  87736-4 0  9993,2 52135  53.2168 228.1354 0001391  96.0450 264.0701 15.08841419106633,6917.876,95.437,540.703,538.779,0.0
52135.0,STARLINK-3729,PAYLOAD,2024-02-11 19:10:00,15.08844562,0.0001379,53.2167,226.946,95.4379,264.6771,0.00010478,1.38e-05,0.0,0 STARLINK-3729,1 52135U 22029AZ  24042.79862130  .00001380  00000-0  10478-3 0  9994,2 52135  53.2167 226.9460 0001379  95.4379 264.6771 15.08844562106674,6917.866,95.437,540.685,538.777,0.0
52135.0,STARLINK-3729,PAYLOAD,2024-02-12 12:39:15,15.08837807,0.0001194,53.2163,223.6758,102.0654,258.0471,8.0585e-05,9.95e-06,0.0,0 STARLINK-3729,1 52135U 22029AZ  24043.52726736  .00000995  00000-0  80585-4 0  9995,2 52135  53.2163 223.6758 0001194 102.0654 258.0471 15.08837807106780,6917.887,95.438,540.578,538.926,0.0
52135.0,STARLINK-3729,PAYLOAD,2024-02-12 17:25:25,15.08840654,0.0001313,53.2169,222.7838,94.4513,265.6629,0.00010542,1.39e-05,0.0,0 STARLINK-3729,1 52135U 22029AZ  24043.72598593  .00001390  00000-0  10542-3 0  9990,2 52135  53.2169 222.7838 0001313  94.4513 265.6629 15.08840654106813,6917.878,95.438,540.652,538.835,0.0
52135.0,STARLINK-3729,PAYLOAD,2024-02-13 10:54:39,15.08838126,0.0001223,53.2174,219.5157,97.1002,263.0129,9.9984e-05,1.304e-05,0.0,0 STARLINK-3729,1 52135U 22029AZ  24044.45462892  .00001304  00000-0  99984-4 0  9996,2 52135  53.2174 219.5157 0001223  97.1002 263.0129 15.08838126106920,6917.886,95.438,540.597,538.905,0.0
52135.0,STARLINK-3729,PAYLOAD,2024-02-13 18:51:35,15.08843623,0.0001523,53.2171,218.0273,95.9072,264.2094,4.6798e-05,4.57e-06,0.0,0 STARLINK-3729,1 52135U 22029AZ  24044.78582795  .00000457  00000-0  46798-4 0  9990,2 52135  53.2171 218.0273 0001523  95.9072 264.2094 15.08843623106973,6917.869,95.437,540.788,538.681,0.0
52135.0,STARLINK-3729,PAYLOAD,2024-02-13 20:26:58,15.08846763,0.0001589,53.2173,217.7297,101.1884,258.9286,2.5046e-05,1.11e-06,0.0,0 STARLINK-3729,1 52135U 22029AZ  24044.85206593  .00000111  00000-0  25046-4 0  9997,2 52135  53.2173 217.7297 0001589 101.1884 258.9286 15.08846763106982,6917.86,95.437,540.824,538.625,0.0
52135.0,STARLINK-3729,PAYLOAD,2024-02-14 10:45:27,15.08834776,0.0001362,53.2165,215.0543,83.0331,277.0816,4.2764e-05,3.93e-06,0.0,0 STARLINK-3729,1 52135U 22029AZ  24045.44823548  .00000393  00000-0  42764-4 0  9996,2 52135  53.2165 215.0543 0001362  83.0331 277.0816 15.08834776107075,6917.896,95.438,540.704,538.819,0.0
